[{"OBJECT_NAME":"STARLINK-31272","OBJECT_ID":"2024-044L","EPOCH":"2026-03-09T11:04:40.105056","MEAN_MOTION":15.27575096,"ECCENTRICITY":0.00010403,"INCLINATION":42.9999,"RA_OF_ASC_NODE":108.0604,"ARG_OF_PERICENTER":254.0222,"MEAN_ANOMALY":106.0515,"EPHEMERIS_TYPE":0,"CLASSIFICATION_TYPE":"U","NORAD_CAT_ID":59162,"ELEMENT_SET_NO":999,"REV_AT_EPOCH":11353,"BSTAR":2.058611e-6,"MEAN_MOTION_DOT":-2.05e-6,"MEAN_MOTION_DDOT":0},{"OBJECT_NAME":"FLOCK 4G-15","OBJECT_ID":"2025-009BX","EPOCH":"2026-03-09T17:13:37.807680","MEAN_MOTION":15.27266411,"ECCENTRICITY":0.00036988,"INCLINATION":97.4054,"RA_OF_ASC_NODE":151.1927,"ARG_OF_PERICENTER":316.8208,"MEAN_ANOMALY":43.274,"EPHEMERIS_TYPE":0,"CLASSIFICATION_TYPE":"U","NORAD_CAT_ID":62678,"ELEMENT_SET_NO":999,"REV_AT_EPOCH":12135,"BSTAR":0.00047574812,"MEAN_MOTION_DOT":0.00012647,"MEAN_MOTION_DDOT":0}]
